{
  "type": "FeatureCollection",
  "features": [
    {
      "type": "Feature",
      "properties": {
        "norad_id": 66174,
        "name": "HTV-X1",
        "group": "stations",
        "lat": -40.22645144172219,
        "lon": 60.556617329821236,
        "alt_km": 419.92232549198707,
        "timestamp": "2025-12-20T18:51:30.476986+00:00",
        "meta_object_name": "HTV-X1",
        "meta_object_id": "2025-241A",
        "meta_epoch": "2025-12-20T14:27:14.498496",
        "meta_mean_motion": 15.49685042,
        "meta_eccentricity": 0.00031934,
        "meta_inclination": 51.6321,
        "meta_ra_of_asc_node": 103.5427,
        "meta_arg_of_pericenter": 277.2005,
        "meta_mean_anomaly": 82.862,
        "meta_ephemeris_type": 0,
        "meta_classification_type": "U",
        "meta_norad_cat_id": 66174,
        "meta_element_set_no": 999,
        "meta_rev_at_epoch": 51,
        "meta_bstar": 0.00012983891,
        "meta_mean_motion_dot": 6.881e-05,
        "meta_mean_motion_ddot": 0,
        "tle_line1": "1 66174U 25241A   25354.60225114  .00006881  00000+0  12984-3 0  9997",
        "tle_line2": "2 66174  51.6321 103.5427 0003193 277.2005  82.8620 15.49685042   511"
      },
      "geometry": {
        "type": "Point",
        "coordinates": [
          60.556617329821236,
          -40.22645144172219
        ]
      }
    },
    {
      "type": "Feature",
      "properties": {
        "norad_id": 66515,
        "name": "SZ-21 MODULE",
        "group": "stations",
        "lat": 8.53940048662871,
        "lon": -23.266090606033906,
        "alt_km": 376.3900923245392,
        "timestamp": "2025-12-20T18:51:30.476996+00:00",
        "meta_object_name": "SZ-21 MODULE",
        "meta_object_id": "2025-246C",
        "meta_epoch": "2025-12-20T00:23:58.587648",
        "meta_mean_motion": 15.62845969,
        "meta_eccentricity": 0.00056139,
        "meta_inclination": 41.4774,
        "meta_ra_of_asc_node": 331.6436,
        "meta_arg_of_pericenter": 298.6843,
        "meta_mean_anomaly": 61.3432,
        "meta_ephemeris_type": 0,
        "meta_classification_type": "U",
        "meta_norad_cat_id": 66515,
        "meta_element_set_no": 999,
        "meta_rev_at_epoch": 558,
        "meta_bstar": 0.00022500266,
        "meta_mean_motion_dot": 0.00020613,
        "meta_mean_motion_ddot": 0,
        "tle_line1": "1 66515U 25246C   25354.01665032  .00020613  00000+0  22500-3 0  9997",
        "tle_line2": "2 66515  41.4774 331.6436 0005613 298.6843  61.3432 15.62845969  5585"
      },
      "geometry": {
        "type": "Point",
        "coordinates": [
          -23.266090606033906,
          8.53940048662871
        ]
      }
    },
    {
      "type": "Feature",
      "properties": {
        "norad_id": 66645,
        "name": "SHENZHOU-22",
        "group": "stations",
        "lat": 4.930727948752018,
        "lon": -26.547090477754136,
        "alt_km": 388.30167782011813,
        "timestamp": "2025-12-20T18:51:30.477005+00:00",
        "meta_object_name": "SHENZHOU-22",
        "meta_object_id": "2025-272A",
        "meta_epoch": "2025-12-20T09:36:17.868384",
        "meta_mean_motion": 15.59501485,
        "meta_eccentricity": 0.00077102,
        "meta_inclination": 41.4685,
        "meta_ra_of_asc_node": 330.1895,
        "meta_arg_of_pericenter": 98.1704,
        "meta_mean_anomaly": 262.0009,
        "meta_ephemeris_type": 0,
        "meta_classification_type": "U",
        "meta_norad_cat_id": 66645,
        "meta_element_set_no": 999,
        "meta_rev_at_epoch": 26519,
        "meta_bstar": 0.00021960295,
        "meta_mean_motion_dot": 0.00017645,
        "meta_mean_motion_ddot": 0,
        "tle_line1": "1 66645U 25272A   25354.40020681  .00017645  00000+0  21960-3 0  9998",
        "tle_line2": "2 66645  41.4685 330.1895 0007710  98.1704 262.0009 15.59501485265195"
      },
      "geometry": {
        "type": "Point",
        "coordinates": [
          -26.547090477754136,
          4.930727948752018
        ]
      }
    },
    {
      "type": "Feature",
      "properties": {
        "norad_id": 66664,
        "name": "SOYUZ-MS 28",
        "group": "stations",
        "lat": -40.22645027744191,
        "lon": 60.5566194598725,
        "alt_km": 419.9223254747849,
        "timestamp": "2025-12-20T18:51:30.477017+00:00",
        "meta_object_name": "SOYUZ-MS 28",
        "meta_object_id": "2025-275A",
        "meta_epoch": "2025-12-20T14:27:14.498496",
        "meta_mean_motion": 15.49685042,
        "meta_eccentricity": 0.00031934,
        "meta_inclination": 51.6321,
        "meta_ra_of_asc_node": 103.5427,
        "meta_arg_of_pericenter": 277.2005,
        "meta_mean_anomaly": 82.862,
        "meta_ephemeris_type": 0,
        "meta_classification_type": "U",
        "meta_norad_cat_id": 66664,
        "meta_element_set_no": 999,
        "meta_rev_at_epoch": 128,
        "meta_bstar": 0.00012983891,
        "meta_mean_motion_dot": 6.881e-05,
        "meta_mean_motion_ddot": 0,
        "tle_line1": "1 66664U 25275A   25354.60225114  .00006881  00000+0  12984-3 0  9998",
        "tle_line2": "2 66664  51.6321 103.5427 0003193 277.2005  82.8620 15.49685042  1280"
      },
      "geometry": {
        "type": "Point",
        "coordinates": [
          60.5566194598725,
          -40.22645027744191
        ]
      }
    },
    {
      "type": "Feature",
      "properties": {
        "norad_id": 66906,
        "name": "1998-067XS",
        "group": "stations",
        "lat": 6.042966918320303,
        "lon": 107.31311403023011,
        "alt_km": 415.07632845030184,
        "timestamp": "2025-12-20T18:51:30.477028+00:00",
        "meta_object_name": "1998-067XS",
        "meta_object_id": "1998-067XS",
        "meta_epoch": "2025-12-20T11:05:35.991168",
        "meta_mean_motion": 15.50962254,
        "meta_eccentricity": 0.00030029,
        "meta_inclination": 51.6311,
        "meta_ra_of_asc_node": 104.1082,
        "meta_arg_of_pericenter": 237.5,
        "meta_mean_anomaly": 122.5699,
        "meta_ephemeris_type": 0,
        "meta_classification_type": "U",
        "meta_norad_cat_id": 66906,
        "meta_element_set_no": 999,
        "meta_rev_at_epoch": 281,
        "meta_bstar": 0.00037246497,
        "meta_mean_motion_dot": 0.00021596,
        "meta_mean_motion_ddot": 0,
        "tle_line1": "1 66906U 98067XS  25354.46222212  .00021596  00000+0  37246-3 0  9994",
        "tle_line2": "2 66906  51.6311 104.1082 0003002 237.5000 122.5699 15.50962254  2818"
      },
      "geometry": {
        "type": "Point",
        "coordinates": [
          107.31311403023011,
          6.042966918320303
        ]
      }
    },
    {
      "type": "Feature",
      "properties": {
        "norad_id": 66907,
        "name": "1998-067XT",
        "group": "stations",
        "lat": 40.94316879087678,
        "lon": 145.81779877613576,
        "alt_km": 406.47914117872006,
        "timestamp": "2025-12-20T18:51:30.477037+00:00",
        "meta_object_name": "1998-067XT",
        "meta_object_id": "1998-067XT",
        "meta_epoch": "2025-12-19T11:42:50.767776",
        "meta_mean_motion": 15.52255247,
        "meta_eccentricity": 0.0003998,
        "meta_inclination": 51.6306,
        "meta_ra_of_asc_node": 108.8528,
        "meta_arg_of_pericenter": 265.7173,
        "meta_mean_anomaly": 94.336,
        "meta_ephemeris_type": 0,
        "meta_classification_type": "U",
        "meta_norad_cat_id": 66907,
        "meta_element_set_no": 999,
        "meta_rev_at_epoch": 266,
        "meta_bstar": 0.00077339,
        "meta_mean_motion_dot": 0.00047666,
        "meta_mean_motion_ddot": 0,
        "tle_line1": "1 66907U 98067XT  25353.48808759  .00047666  00000+0  77339-3 0  9995",
        "tle_line2": "2 66907  51.6306 108.8528 0003998 265.7173  94.3360 15.52255247  2660"
      },
      "geometry": {
        "type": "Point",
        "coordinates": [
          145.81779877613576,
          40.94316879087678
        ]
      }
    },
    {
      "type": "Feature",
      "properties": {
        "norad_id": 66908,
        "name": "1998-067XU",
        "group": "stations",
        "lat": 43.43934835983016,
        "lon": 151.00254400593843,
        "alt_km": 405.8084691344329,
        "timestamp": "2025-12-20T18:51:30.477048+00:00",
        "meta_object_name": "1998-067XU",
        "meta_object_id": "1998-067XU",
        "meta_epoch": "2025-12-20T13:57:38.963808",
        "meta_mean_motion": 15.52465703,
        "meta_eccentricity": 0.00039229,
        "meta_inclination": 51.6312,
        "meta_ra_of_asc_node": 103.4063,
        "meta_arg_of_pericenter": 272.2862,
        "meta_mean_anomaly": 87.7679,
        "meta_ephemeris_type": 0,
        "meta_classification_type": "U",
        "meta_norad_cat_id": 66908,
        "meta_element_set_no": 999,
        "meta_rev_at_epoch": 283,
        "meta_bstar": 0.00073917994,
        "meta_mean_motion_dot": 0.00045874,
        "meta_mean_motion_ddot": 0,
        "tle_line1": "1 66908U 98067XU  25354.58170097  .00045874  00000+0  73918-3 0  9993",
        "tle_line2": "2 66908  51.6312 103.4063 0003922 272.2862  87.7679 15.52465703  2836"
      },
      "geometry": {
        "type": "Point",
        "coordinates": [
          151.00254400593843,
          43.43934835983016
        ]
      }
    }
  ]
}